{
 "generated_at": "2026-06-13T08:21:29Z",
 "sources": [
  {
   "name": "CelesTrak",
   "url": "https://celestrak.org/NORAD/elements/",
   "license": "frei verfügbar; Attribution. Ursprünglich USSPACECOM/Space-Track."
  },
  {
   "name": "GCAT (J. McDowell, planet4589.org)",
   "url": "https://planet4589.org/space/gcat/",
   "license": "CC-BY 4.0"
  }
 ],
 "satellites": [
  {
   "norad": 52200,
   "name": "GAOFEN-3 03",
   "intl": "2022-035A",
   "group": "sar",
   "gcat": {
    "class": "C",
    "category": "IMG-R",
    "owner": "GWHYZ",
    "state": "CN"
   },
   "omm": {
    "OBJECT_NAME": "GAOFEN-3 03",
    "OBJECT_ID": "2022-035A",
    "EPOCH": "2026-06-12T20:36:45.235296",
    "MEAN_MOTION": 14.42214036,
    "ECCENTRICITY": 0.0001207,
    "INCLINATION": 98.4063,
    "RA_OF_ASC_NODE": 172.5016,
    "ARG_OF_PERICENTER": 101.6579,
    "MEAN_ANOMALY": 258.4747,
    "EPHEMERIS_TYPE": 0,
    "CLASSIFICATION_TYPE": "U",
    "NORAD_CAT_ID": 52200,
    "ELEMENT_SET_NO": 999,
    "REV_AT_EPOCH": 22022,
    "BSTAR": -0.000022473,
    "MEAN_MOTION_DOT": -0.00000117,
    "MEAN_MOTION_DDOT": 0
   }
  },
  {
   "norad": 41194,
   "name": "GAOFEN-4",
   "intl": "2015-083A",
   "group": "resource",
   "gcat": {
    "class": "C",
    "category": "IMG",
    "owner": "CNSAS",
    "state": "CN"
   },
   "omm": {
    "OBJECT_NAME": "GAOFEN-4",
    "OBJECT_ID": "2015-083A",
    "EPOCH": "2026-06-12T20:32:46.275360",
    "MEAN_MOTION": 1.00271177,
    "ECCENTRICITY": 0.0004312,
    "INCLINATION": 0.3447,
    "RA_OF_ASC_NODE": 83.8685,
    "ARG_OF_PERICENTER": 113.1478,
    "MEAN_ANOMALY": 118.0721,
    "EPHEMERIS_TYPE": 0,
    "CLASSIFICATION_TYPE": "U",
    "NORAD_CAT_ID": 41194,
    "ELEMENT_SET_NO": 999,
    "REV_AT_EPOCH": 3848,
    "BSTAR": 0,
    "MEAN_MOTION_DOT": -0.00000321,
    "MEAN_MOTION_DDOT": 0
   }
  },
  {
   "norad": 43484,
   "name": "GAOFEN-6",
   "intl": "2018-048A",
   "group": "resource",
   "gcat": {
    "class": "C",
    "category": "IMG",
    "owner": "CNSAS",
    "state": "CN"
   },
   "omm": {
    "OBJECT_NAME": "GAOFEN-6",
    "OBJECT_ID": "2018-048A",
    "EPOCH": "2026-06-12T20:52:26.283360",
    "MEAN_MOTION": 14.76592394,
    "ECCENTRICITY": 0.0011464,
    "INCLINATION": 97.8549,
    "RA_OF_ASC_NODE": 226.7291,
    "ARG_OF_PERICENTER": 181.5175,
    "MEAN_ANOMALY": 178.6002,
    "EPHEMERIS_TYPE": 0,
    "CLASSIFICATION_TYPE": "U",
    "NORAD_CAT_ID": 43484,
    "ELEMENT_SET_NO": 999,
    "REV_AT_EPOCH": 43275,
    "BSTAR": 0.000030432,
    "MEAN_MOTION_DOT": 0.00000163,
    "MEAN_MOTION_DDOT": 0
   }
  },
  {
   "norad": 40701,
   "name": "GAOFEN-8",
   "intl": "2015-030A",
   "group": "resource",
   "gcat": {
    "class": "D",
    "category": "IMG",
    "owner": "ZZB",
    "state": "CN"
   },
   "omm": {
    "OBJECT_NAME": "GAOFEN-8",
    "OBJECT_ID": "2015-030A",
    "EPOCH": "2026-06-12T21:07:38.032320",
    "MEAN_MOTION": 15.45806497,
    "ECCENTRICITY": 0.00083,
    "INCLINATION": 97.6905,
    "RA_OF_ASC_NODE": 356.9937,
    "ARG_OF_PERICENTER": 202.4775,
    "MEAN_ANOMALY": 157.6111,
    "EPHEMERIS_TYPE": 0,
    "CLASSIFICATION_TYPE": "U",
    "NORAD_CAT_ID": 40701,
    "ELEMENT_SET_NO": 999,
    "REV_AT_EPOCH": 61078,
    "BSTAR": 0.00049054,
    "MEAN_MOTION_DOT": 0.00023745,
    "MEAN_MOTION_DDOT": 0
   }
  },
  {
   "norad": 40894,
   "name": "GAOFEN-9 01",
   "intl": "2015-047A",
   "group": "resource",
   "gcat": {
    "class": null,
    "category": null,
    "owner": null,
    "state": null
   },
   "omm": {
    "OBJECT_NAME": "GAOFEN-9 01",
    "OBJECT_ID": "2015-047A",
    "EPOCH": "2026-06-12T21:05:40.687296",
    "MEAN_MOTION": 14.82876119,
    "ECCENTRICITY": 0.0028083,
    "INCLINATION": 97.6276,
    "RA_OF_ASC_NODE": 199.7694,
    "ARG_OF_PERICENTER": 151.4854,
    "MEAN_ANOMALY": 208.7904,
    "EPHEMERIS_TYPE": 0,
    "CLASSIFICATION_TYPE": "U",
    "NORAD_CAT_ID": 40894,
    "ELEMENT_SET_NO": 999,
    "REV_AT_EPOCH": 57955,
    "BSTAR": 0.00012209,
    "MEAN_MOTION_DOT": 0.00000945,
    "MEAN_MOTION_DDOT": 0
   }
  },
  {
   "norad": 35491,
   "name": "GOES 14",
   "intl": "2009-033A",
   "group": "weather",
   "gcat": {
    "class": "C",
    "category": "MET",
    "owner": "NOAA",
    "state": "US"
   },
   "omm": {
    "OBJECT_NAME": "GOES 14",
    "OBJECT_ID": "2009-033A",
    "EPOCH": "2026-06-12T07:02:30.276672",
    "MEAN_MOTION": 1.00112438,
    "ECCENTRICITY": 0.0001768,
    "INCLINATION": 1.6767,
    "RA_OF_ASC_NODE": 83.0988,
    "ARG_OF_PERICENTER": 8.9294,
    "MEAN_ANOMALY": 58.8696,
    "EPHEMERIS_TYPE": 0,
    "CLASSIFICATION_TYPE": "U",
    "NORAD_CAT_ID": 35491,
    "ELEMENT_SET_NO": 999,
    "REV_AT_EPOCH": 654,
    "BSTAR": 0,
    "MEAN_MOTION_DOT": -0.00000257,
    "MEAN_MOTION_DDOT": 0
   }
  },
  {
   "norad": 41866,
   "name": "GOES 16",
   "intl": "2016-071A",
   "group": "weather",
   "gcat": {
    "class": "C",
    "category": "MET",
    "owner": "NOAA",
    "state": "US"
   },
   "omm": {
    "OBJECT_NAME": "GOES 16",
    "OBJECT_ID": "2016-071A",
    "EPOCH": "2026-06-12T05:51:28.339200",
    "MEAN_MOTION": 1.00270156,
    "ECCENTRICITY": 0.00002608,
    "INCLINATION": 0.3277,
    "RA_OF_ASC_NODE": 85.5604,
    "ARG_OF_PERICENTER": 298.9228,
    "MEAN_ANOMALY": 219.2798,
    "EPHEMERIS_TYPE": 0,
    "CLASSIFICATION_TYPE": "U",
    "NORAD_CAT_ID": 41866,
    "ELEMENT_SET_NO": 999,
    "REV_AT_EPOCH": 3505,
    "BSTAR": 0,
    "MEAN_MOTION_DOT": -7.5e-7,
    "MEAN_MOTION_DDOT": 0
   }
  }
 ]
}
